     3.02           NAVIGATION DATA     E (GALILEO)         RINEX VERSION / TYPE
MAKERINEX 2.0.20023 BKG/GOWETTZELL      2016-01-06 01:37    PGM / RUN BY / DATE
                                                            END OF HEADER
E12 2016  1  5 12 20  0-2.435842179693D-04-1.476792022004D-10 0.000000000000D+00
     1.060000000000D+02-3.378125000000D+01 2.968337928904D-09 1.348995381930D-02
    -1.594424247742D-06 2.543402370065D-04 1.022033393383D-05 5.440618272781D+03
     2.172000000000D+05-2.980232238770D-08-2.691212567006D-01-7.450580596924D-09
     9.680044037375D-01 1.245312500000D+02-1.274285246958D+00-5.437726503135D-09
     4.235890727566D-10 2.000000000000D+00 1.878000000000D+03 0.000000000000D+00
     1.220000000000D+02 0.000000000000D+00-6.053596735001D-09-5.587935447693D-09
     2.178850000000D+05
E11 2016  1  5 12 20  0 1.389096723869D-05 1.097077984014D-11 0.000000000000D+00
     1.060000000000D+02-2.543750000000D+01 2.996910547639D-09-1.393121419453D+00
    -1.328065991402D-06 1.315590925515D-04 9.948387742043D-06 5.440617313385D+03
     2.172000000000D+05-4.284083843231D-08-2.691028678203D-01 1.490116119385D-08
     9.679927954825D-01 1.305312500000D+02-5.861218559737D-01-5.423083036033D-09
     4.507330605555D-10 2.000000000000D+00 1.878000000000D+03 0.000000000000D+00
     1.220000000000D+02 4.800000000000D+01-8.847564458847D-09-9.778887033463D-09
     2.178850000000D+05
E30 2016  1  5 12 20  0 1.453186967410D-03 3.991971198047D-10 0.000000000000D+00
     1.060000000000D+02 4.465625000000D+01 2.732970982068D-09-2.111081831626D+00
     2.115964889526D-06 2.594363177195D-04 1.171603798866D-06 5.440616249084D+03
     2.172000000000D+05-7.823109626770D-08-2.365449010903D+00 5.587935447693D-08
     1.000974621514D+00 3.355312500000D+02-1.197316275772D-01-5.698094491364D-09
     6.571702309208D-11 2.000000000000D+00 1.878000000000D+03 0.000000000000D+00
     1.220000000000D+02 4.800000000000D+01 6.984919309616D-09 6.752088665962D-09
     2.178850000000D+05
E12 2016  1  5 12 30  0-2.436726936139D-04-1.476792022004D-10 0.000000000000D+00
     1.070000000000D+02-3.637500000000D+01 2.956908881409D-09 8.733775417374D-02
    -1.702457666397D-06 2.546455943957D-04 1.023523509502D-05 5.440618942261D+03
     2.178000000000D+05-3.166496753693D-08-2.691245321741D-01-9.313225746155D-09
     9.680046597481D-01 1.241875000000D+02-1.273747817669D+00-5.436297872199D-09
     4.246605459591D-10 2.000000000000D+00 1.878000000000D+03 0.000000000000D+00
     1.220000000000D+02 0.000000000000D+00-6.053596735001D-09-5.587935447693D-09
     2.184850000000D+05
E11 2016  1  5 12 30  0 1.389760291204D-05 1.097077984014D-11 0.000000000000D+00
     1.070000000000D+02-2.540625000000D+01 2.993338970297D-09-1.318605447358D+00
    -1.328065991402D-06 1.315699191764D-04 9.942799806595D-06 5.440617351532D+03
     2.178000000000D+05-4.284083843231D-08-2.691060950176D-01 9.313225746155D-09
     9.679930748999D-01 1.303750000000D+02-5.862527008296D-01-5.423083036033D-09
     4.468043254793D-10 2.000000000000D+00 1.878000000000D+03 0.000000000000D+00
     1.220000000000D+02 4.800000000000D+01-8.847564458847D-09-9.778887033463D-09
     2.184850000000D+05
E30 2016  1  5 12 30  0 1.453426550142D-03 3.991829089500D-10 0.000000000000D+00
     1.070000000000D+02 4.434375000000D+01 2.734399613005D-09-2.037030199970D+00
     2.102926373482D-06 2.594465622678D-04 1.145526766777D-06 5.440616075516D+03
     2.178000000000D+05-8.568167686462D-08-2.365452384392D+00 4.842877388000D-08
     1.000974690271D+00 3.361562500000D+02-1.193983133961D-01-5.695594387225D-09
     5.785955293977D-11 2.000000000000D+00 1.878000000000D+03 0.000000000000D+00
     1.220000000000D+02 4.800000000000D+01 6.984919309616D-09 6.752088665962D-09
     2.184850000000D+05
E12 2016  1  5 12 40  0-2.437610528432D-04-1.476792022004D-10 0.000000000000D+00
     1.080000000000D+02-3.900000000000D+01 2.944765518447D-09 1.610927762636D-01
    -1.812353730202D-06 2.549414057285D-04 1.023150980473D-05 5.440619617462D+03
     2.184000000000D+05-3.352761268616D-08-2.691278134994D-01-1.117587089539D-08
     9.680049172217D-01 1.242500000000D+02-1.273117639374D+00-5.434154925793D-09
     4.264463346301D-10 2.000000000000D+00 1.878000000000D+03 0.000000000000D+00
     1.220000000000D+02 0.000000000000D+00-6.053596735001D-09-5.587935447693D-09
     2.190850000000D+05
E11 2016  1  5 12 40  0 1.390435500070D-05 1.097077984014D-11 0.000000000000D+00
     1.080000000000D+02-2.546875000000D+01 2.988695919753D-09-1.243870195546D+00
    -1.326203346252D-06 1.316049601883D-04 9.948387742043D-06 5.440617465973D+03
     2.184000000000D+05-4.284083843231D-08-2.691093266036D-01 3.725290298462D-09
     9.679933513914D-01 1.299062500000D+02-5.866028078472D-01-5.423440193768D-09
     4.435899058715D-10 2.000000000000D+00 1.878000000000D+03 0.000000000000D+00
     1.220000000000D+02 4.800000000000D+01-8.847564458847D-09-9.778887033463D-09
     2.190850000000D+05
E30 2016  1  5 12 40  0 1.453666249290D-03 3.991829089500D-10 0.000000000000D+00
     1.080000000000D+02 4.421875000000D+01 2.735113928474D-09-1.962844415800D+00
     2.099201083183D-06 2.594471443444D-04 1.128762960434D-06 5.440615970612D+03
     2.184000000000D+05-9.313225746155D-08-2.365455757881D+00 3.725290298462D-08
     1.000974753176D+00 3.365312500000D+02-1.191991253963D-01-5.693808598554D-09
     4.964492505326D-11 2.000000000000D+00 1.878000000000D+03 0.000000000000D+00
     1.220000000000D+02 4.800000000000D+01 6.984919309616D-09 6.752088665962D-09
     2.190850000000D+05
E22 2016  1  5 12 40  0 2.750111161731D-04 1.767830326571D-10 0.000000000000D+00
     1.080000000000D+02-3.487500000000D+01 3.026197481843D-09 2.570562991981D-02
    -1.549720764160D-06 3.531950060278D-04 1.050159335136D-05 5.440596439362D+03
     2.184000000000D+05 1.136213541031D-07-2.625391757190D-01 3.725290298462D-08
     9.644037073769D-01 1.169687500000D+02 2.747803716940D+00-5.361651905752D-09
     5.089497712294D-10 2.000000000000D+00 1.878000000000D+03 0.000000000000D+00
     1.220000000000D+02 0.000000000000D+00 3.026798367500D-09 2.561137080193D-09
     2.191750000000D+05
E19 2016  1  5 12 50  0-1.007283572108D-05-1.193711796077D-12 0.000000000000D+00
     1.090000000000D+02-2.500000000000D+01 3.320852612555D-09 1.683176697397D+00
    -1.057982444763D-06 2.596861450002D-04 9.125098586082D-06 5.440616685867D+03
     2.190000000000D+05-9.313225746155D-09 1.827563699672D+00-1.490116119385D-08
     9.586544949162D-01 1.422500000000D+02 2.353754069270D+00-5.573446442130D-09
    -5.096640866978D-10 2.000000000000D+00 1.878000000000D+03 0.000000000000D+00
     1.220000000000D+02 0.000000000000D+00 9.313225746155D-10 1.164153218269D-09
     2.196850000000D+05
E22 2016  1  5 12 50  0 2.751169377007D-04 1.767830326571D-10 0.000000000000D+00
     1.090000000000D+02-3.484375000000D+01 3.007268121931D-09 1.000422175371D-01
    -1.549720764160D-06 3.532241098583D-04 1.049600541592D-05 5.440596502304D+03
     2.190000000000D+05 1.490116119385D-07-2.625424585072D-01 4.842877388000D-08
     9.644041711219D-01 1.172187500000D+02 2.747853191366D+00-5.332722129282D-09
     5.068068248242D-10 2.000000000000D+00 1.878000000000D+03 0.000000000000D+00
     1.220000000000D+02 0.000000000000D+00 3.026798367500D-09 2.561137080193D-09
     2.196850000000D+05
E11 2016  1  5 12 50  0 1.391104888171D-05 1.097077984014D-11 0.000000000000D+00
     1.090000000000D+02-2.565625000000D+01 2.983338553740D-09-1.168926463279D+00
    -1.331791281700D-06 1.316694542766D-04 9.967014193535D-06 5.440617660522D+03
     2.190000000000D+05-4.097819328308D-08-2.691125611155D-01 0.000000000000D+00
     9.679936234941D-01 1.291562500000D+02-5.871613850799D-01-5.424154509236D-09
     4.407326439980D-10 2.000000000000D+00 1.878000000000D+03 0.000000000000D+00
     1.220000000000D+02 4.800000000000D+01-8.847564458847D-09-9.778887033463D-09
     2.196850000000D+05
E30 2016  1  5 12 50  0 1.453905832022D-03 3.991829089500D-10 0.000000000000D+00
     1.090000000000D+02 4.421875000000D+01 2.734756770739D-09-1.888524483505D+00
     2.097338438034D-06 2.594465622678D-04 1.123175024986D-06 5.440615938187D+03
     2.190000000000D+05-9.685754776001D-08-2.365459122593D+00 2.421438694000D-08
     1.000974810230D+00 3.366562500000D+02-1.191340708922D-01-5.692737125351D-09
     4.071598169835D-11 2.000000000000D+00 1.878000000000D+03 0.000000000000D+00
     1.220000000000D+02 4.800000000000D+01 6.984919309616D-09 6.752088665962D-09
     2.196850000000D+05
E19 2016  1  5 13  0  0-1.007335959002D-05-1.179500941362D-12 0.000000000000D+00
     1.100000000000D+02-2.468750000000D+01 3.322995558960D-09 1.757303746869D+00
    -1.033768057823D-06 2.596465637907D-04 9.162351489067D-06 5.440616846085D+03
     2.196000000000D+05-7.450580596924D-09 1.827560353979D+00-1.303851604462D-08
     9.586541730743D-01 1.417187500000D+02 2.354012376716D+00-5.574160757598D-09
    -5.078782980268D-10 2.000000000000D+00 1.878000000000D+03 0.000000000000D+00
     1.220000000000D+02 0.000000000000D+00 9.313225746155D-10 1.164153218269D-09
     2.202850000000D+05
E22 2016  1  5 13  0  0 2.752228756435D-04 1.767830326571D-10 0.000000000000D+00
     1.100000000000D+02-3.468750000000D+01 3.050484207769D-09 1.743117259716D-01
    -1.545995473862D-06 3.532965201885D-04 1.046806573868D-05 5.440596662521D+03
     2.196000000000D+05 4.842877388000D-08-2.625455277093D-01 3.166496753693D-08
     9.644040423851D-01 1.178125000000D+02 2.747969636720D+00-5.411653988539D-09
     5.107355599004D-10 2.000000000000D+00 1.878000000000D+03 0.000000000000D+00
     1.220000000000D+02 0.000000000000D+00 3.026798367500D-09 2.561137080193D-09
     2.202850000000D+05
